{
  "type": "FeatureCollection",
  "features": [
    {
      "type": "Feature",
      "id": "ghc",
      "properties": {
        "id": "ghc",
        "name": "Gates Hillman Center",
        "short_name": "GHC",
        "height": 42,
        "off_campus": false
      },
      "geometry": {
        "type": "Polygon",
        "coordinates": [
          [
            [
              -79.94497493317989,
              40.44358948975925
            ],
            [
              -79.94412506682012,
              40.44358948975925
            ],
            [
              -79.94412506682012,
              40.44411051024075
            ],
            [
              -79.94497493317989,
              40.44411051024075
            ],
            [
              -79.94497493317989,
              40.44358948975925
            ]
          ]
        ]
      }
    },
    {
      "type": "Feature",
      "id": "tepper",
      "properties": {
        "id": "tepper",
        "name": "Tepper Quad",
        "short_name": "Tepper",
        "height": 28,
        "off_campus": false
      },
      "geometry": {
        "type": "Polygon",
        "coordinates": [
          [
            [
              -79.94248114593063,
              40.44093559108875
            ],
            [
              -79.94141885406938,
              40.44093559108875
            ],
            [
              -79.94141885406938,
              40.44156440891124
            ],
            [
              -79.94248114593063,
              40.44156440891124
            ],
            [
              -79.94248114593063,
              40.44093559108875
            ]
          ]
        ]
      }
    },
    {
      "type": "Feature",
      "id": "cuc",
      "properties": {
        "id": "cuc",
        "name": "Cohon University Center",
        "short_name": "CUC",
        "height": 22,
        "off_campus": false
      },
      "geometry": {
        "type": "Polygon",
        "coordinates": [
          [
            [
              -79.94222214165607,
              40.442662540424
            ],
            [
              -79.94127785834392,
              40.442662540424
            ],
            [
              -79.94127785834392,
              40.443237459576004
            ],
            [
              -79.94222214165607,
              40.443237459576004
            ],
            [
              -79.94222214165607,
              40.442662540424
            ]
          ]
        ]
      }
    },
    {
      "type": "Feature",
      "id": "wean",
      "properties": {
        "id": "wean",
        "name": "Wean Hall",
        "short_name": "Wean",
        "height": 36,
        "off_campus": false
      },
      "geometry": {
        "type": "Polygon",
        "coordinates": [
          [
            [
              -79.9461745959399,
              40.44233559108876
            ],
            [
              -79.94552540406009,
              40.44233559108876
            ],
            [
              -79.94552540406009,
              40.442964408911244
            ],
            [
              -79.9461745959399,
              40.442964408911244
            ],
            [
              -79.9461745959399,
              40.44233559108876
            ]
          ]
        ]
      }
    },
    {
      "type": "Feature",
      "id": "doherty",
      "properties": {
        "id": "doherty",
        "name": "Doherty Hall",
        "short_name": "DH",
        "height": 30,
        "off_campus": false
      },
      "geometry": {
        "type": "Polygon",
        "coordinates": [
          [
            [
              -79.94469508647182,
              40.44220152353576
            ],
            [
              -79.94410491352818,
              40.44220152353576
            ],
            [
              -79.94410491352818,
              40.44275847646425
            ],
            [
              -79.94469508647182,
              40.44275847646425
            ],
            [
              -79.94469508647182,
              40.44220152353576
            ]
          ]
        ]
      }
    },
    {
      "type": "Feature",
      "id": "hunt",
      "properties": {
        "id": "hunt",
        "name": "Hunt Library",
        "short_name": "Hunt",
        "height": 46,
        "off_campus": false
      },
      "geometry": {
        "type": "Polygon",
        "coordinates": [
          [
            [
              -79.94398327719759,
              40.440884405318
            ],
            [
              -79.94341672280243,
              40.440884405318
            ],
            [
              -79.94341672280243,
              40.441315594681996
            ],
            [
              -79.94398327719759,
              40.441315594681996
            ],
            [
              -79.94398327719759,
              40.440884405318
            ]
          ]
        ]
      }
    },
    {
      "type": "Feature",
      "id": "nsh",
      "properties": {
        "id": "nsh",
        "name": "Newell-Simon Hall",
        "short_name": "NSH",
        "height": 32,
        "off_campus": false
      },
      "geometry": {
        "type": "Polygon",
        "coordinates": [
          [
            [
              -79.94600410913942,
              40.443275422206256
            ],
            [
              -79.94529589086058,
              40.443275422206256
            ],
            [
              -79.94529589086058,
              40.443724577793745
            ],
            [
              -79.94600410913942,
              40.443724577793745
            ],
            [
              -79.94600410913942,
              40.443275422206256
            ]
          ]
        ]
      }
    },
    {
      "type": "Feature",
      "id": "hamburg",
      "properties": {
        "id": "hamburg",
        "name": "Hamburg Hall",
        "short_name": "HBH",
        "height": 24,
        "off_campus": false
      },
      "geometry": {
        "type": "Polygon",
        "coordinates": [
          [
            [
              -79.94539230916803,
              40.444031354653255
            ],
            [
              -79.94470769083196,
              40.444031354653255
            ],
            [
              -79.94470769083196,
              40.44440864534675
            ],
            [
              -79.94539230916803,
              40.44440864534675
            ],
            [
              -79.94539230916803,
              40.444031354653255
            ]
          ]
        ]
      }
    },
    {
      "type": "Feature",
      "id": "posner",
      "properties": {
        "id": "posner",
        "name": "Posner Hall",
        "short_name": "Posner",
        "height": 20,
        "off_campus": false
      },
      "geometry": {
        "type": "Polygon",
        "coordinates": [
          [
            [
              -79.9431096709576,
              40.440988303988505
            ],
            [
              -79.94259032904242,
              40.440988303988505
            ],
            [
              -79.94259032904242,
              40.441311696011496
            ],
            [
              -79.9431096709576,
              40.441311696011496
            ],
            [
              -79.9431096709576,
              40.440988303988505
            ]
          ]
        ]
      }
    }
  ]
}